STARLINK-30500          
1 58076U 23160B   26068.07973748 -.00001650  00000+0 -51834-4 0  9993
2 58076  42.9967  81.2229 0000954 267.7330  92.3412 15.26745168132850
FLOCK 4G-3              
1 62639U 25009AG  26068.80174065  .00011494  00000+0  43389-3 0  9993
2 62639  97.4062 151.4068 0001320 293.2042  66.9058 15.27179310 63727
