[{"OBJECT_NAME":"STARLINK-30500","OBJECT_ID":"2023-160B","EPOCH":"2026-03-09T01:54:49.318272","MEAN_MOTION":15.26745168,"ECCENTRICITY":9.546e-5,"INCLINATION":42.9967,"RA_OF_ASC_NODE":81.2229,"ARG_OF_PERICENTER":267.733,"MEAN_ANOMALY":92.3412,"EPHEMERIS_TYPE":0,"CLASSIFICATION_TYPE":"U","NORAD_CAT_ID":58076,"ELEMENT_SET_NO":999,"REV_AT_EPOCH":13285,"BSTAR":-5.1834422e-5,"MEAN_MOTION_DOT":-1.65e-5,"MEAN_MOTION_DDOT":0},{"OBJECT_NAME":"FLOCK 4G-3","OBJECT_ID":"2025-009AG","EPOCH":"2026-03-09T19:14:30.392160","MEAN_MOTION":15.2717931,"ECCENTRICITY":0.00013196,"INCLINATION":97.4062,"RA_OF_ASC_NODE":151.4068,"ARG_OF_PERICENTER":293.2042,"MEAN_ANOMALY":66.9058,"EPHEMERIS_TYPE":0,"CLASSIFICATION_TYPE":"U","NORAD_CAT_ID":62639,"ELEMENT_SET_NO":999,"REV_AT_EPOCH":6372,"BSTAR":0.0004338875,"MEAN_MOTION_DOT":0.00011494,"MEAN_MOTION_DDOT":0}]
